NORAD_CAT_ID,OBJECT_NAME,OBJECT_TYPE,EPOCH,MEAN_MOTION,ECCENTRICITY,INCLINATION,RA_OF_ASC_NODE,ARG_OF_PERICENTER,MEAN_ANOMALY,BSTAR,MEAN_MOTION_DOT,MEAN_MOTION_DDOT,TLE_LINE0,TLE_LINE1,TLE_LINE2,SEMIMAJOR_AXIS,PERIOD,APOGEE,PERIGEE,DECAYED
51858.0,STARLINK-3563,PAYLOAD,2023-01-19 13:07:51,15.08854308,0.0001139,53.2146,119.8723,92.1978,267.9144,0.00045473,6.959e-05,0.0,0 STARLINK-3563,1 51858U 22022G   23019.54712465  .00006959  00000-0  45473-3 0  9999,2 51858  53.2146 119.8723 0001139  92.1978 267.9144 15.08854308 50146,6917.837,95.437,540.49,538.914,0.0
51858.0,STARLINK-3563,PAYLOAD,2023-01-20 11:23:15,15.08843005,0.0001051,53.2153,115.7089,95.9693,264.1418,0.00022281,3.26e-05,0.0,0 STARLINK-3563,1 51858U 22022G   23020.47448147  .00003260  00000-0  22281-3 0  9990,2 51858  53.2153 115.7089 0001051  95.9693 264.1418 15.08843005 50282,6917.871,95.437,540.4630000000001,539.009,0.0
51858.0,STARLINK-3563,PAYLOAD,2023-01-21 06:27:53,15.08836037,8.51e-05,53.2156,112.1408,89.0881,271.0209,0.00086,0.00013424,0.0,0 STARLINK-3563,1 51858U 22022G   23021.26936791  .00013424  00000-0  86000-3 0  9997,2 51858  53.2156 112.1408 0000851  89.0881 271.0209 15.08836037 50407,6917.893,95.438,540.346,539.169,0.0
51858.0,STARLINK-3563,PAYLOAD,2023-01-21 12:49:25,15.0884811,8.46e-05,53.2156,110.952,74.7876,285.3209,0.0014808,0.00023363,0.0,0 STARLINK-3563,1 51858U 22022G   23021.53432681  .00023363  00000-0  14808-2 0  9995,2 51858  53.2156 110.9520 0000846  74.7876 285.3209 15.08848110 50444,6917.856,95.437,540.306,539.135,0.0
51858.0,STARLINK-3563,PAYLOAD,2023-01-22 12:40:12,15.08855873,9.61e-05,53.2155,106.4903,59.1437,300.965,0.0010232999999999,0.00016042,0.0,0 STARLINK-3563,1 51858U 22022G   23022.52792785  .00016042  00000-0  10233-2 0  9993,2 51858  53.2155 106.4903 0000961  59.1437 300.9650 15.08855873 50590,6917.831999999999,95.437,540.362,539.0319999999999,0.0
51858.0,STARLINK-3563,PAYLOAD,2023-01-23 04:34:04,15.0883813,9.25e-05,53.2156,103.5195,63.8773,296.2314,0.00011065,1.474e-05,0.0,0 STARLINK-3563,1 51858U 22022G   23023.19032991  .00001474  00000-0  11065-3 0  9991,2 51858  53.2156 103.5195 0000925  63.8773 296.2314 15.08838130 50699,6917.886,95.438,540.391,539.111,0.0
51858.0,STARLINK-3563,PAYLOAD,2023-01-23 15:41:45,15.08851055,9.81e-05,53.2153,101.4387,66.3588,293.7507,0.00029051,4.34e-05,0.0,0 STARLINK-3563,1 51858U 22022G   23023.65400462  .00004340  00000-0  29051-3 0  9993,2 51858  53.2153 101.4387 0000981  66.3588 293.7507 15.08851055 50765,6917.847,95.437,540.39,539.033,0.0
51858.0,STARLINK-3563,PAYLOAD,2023-01-24 12:21:46,15.08855288,0.0001486999999999,53.2165,97.5706,102.1674,257.9484,0.00034987,5.287e-05,0.0,0 STARLINK-3563,1 51858U 22022G   23024.51512139  .00005287  00000-0  34987-3 0  9999,2 51858  53.2165  97.5706 0001487 102.1674 257.9484 15.08855288 50897,6917.834,95.437,540.727,538.67,0.0
51858.0,STARLINK-3563,PAYLOAD,2023-01-25 04:15:38,15.08834271,0.0001158,53.2157,94.598,89.3942,270.7182,-8.6314e-05,-1.661e-05,0.0,0 STARLINK-3563,1 51858U 22022G   23025.17752889 -.00001661  00000-0 -86314-4 0  9996,2 51858  53.2157  94.5980 0001158  89.3942 270.7182 15.08834271 50996,6917.898,95.438,540.564,538.962,0.0
51858.0,STARLINK-3563,PAYLOAD,2023-01-25 12:12:34,15.08834196,0.0001085,53.2149,93.1074,113.3573,246.7533,-6.7775e-05,-1.366e-05,0.0,0 STARLINK-3563,1 51858U 22022G   23025.50873092 -.00001366  00000-0 -67775-4 0  9995,2 51858  53.2149  93.1074 0001085 113.3573 246.7533 15.08834196 51049,6917.898,95.438,540.514,539.013,0.0
51858.0,STARLINK-3563,PAYLOAD,2023-01-26 10:27:58,15.08844658,0.0001054999999999,53.2145,88.9462,78.3139,281.7971,0.00029739,4.449e-05,0.0,0 STARLINK-3563,1 51858U 22022G   23026.43609517  .00004449  00000-0  29739-3 0  9997,2 51858  53.2145  88.9462 0001055  78.3139 281.7971 15.08844658 51187,6917.866,95.437,540.461,539.001,0.0
51858.0,STARLINK-3563,PAYLOAD,2023-01-27 03:57:13,15.08842377,0.0001320999999999,53.214,85.6755,87.5232,272.5911,0.00022914,3.361e-05,0.0,0 STARLINK-3563,1 51858U 22022G   23027.16473882  .00003361  00000-0  22914-3 0  9992,2 51858  53.2140  85.6755 0001321  87.5232 272.5911 15.08842377 51293,6917.8730000000005,95.437,540.6519999999999,538.8240000000001,0.0
51858.0,STARLINK-3563,PAYLOAD,2023-01-27 08:43:22,15.08839379,0.0001154,53.2147,84.7834,93.5995,266.5129,0.00024888,3.675e-05,0.0,0 STARLINK-3563,1 51858U 22022G   23027.36345844  .00003675  00000-0  24888-3 0  9990,2 51858  53.2147  84.7834 0001154  93.5995 266.5129 15.08839379 51321,6917.882,95.438,540.5459999999999,538.9490000000001,0.0
51858.0,STARLINK-3563,PAYLOAD,2023-01-28 03:48:00,15.08839147,0.0001256,53.2146,81.2151,87.8384,272.2752,3.9133e-05,3.35e-06,0.0,0 STARLINK-3563,1 51858U 22022G   23028.15833992  .00000335  00000-0  39133-4 0  9994,2 51858  53.2146  81.2151 0001256  87.8384 272.2752 15.08839147 51447,6917.883000000001,95.438,540.617,538.879,0.0
51858.0,STARLINK-3563,PAYLOAD,2023-01-28 13:20:19,15.08839986,0.0001143,53.2155,79.4299,92.1013,268.011,2.0569e-05,4e-07,0.0,0 STARLINK-3563,1 51858U 22022G   23028.55578014  .00000040  00000-0  20569-4 0  9995,2 51858  53.2155  79.4299 0001143  92.1013 268.0110 15.08839986 51501,6917.88,95.438,540.536,538.955,0.0
51858.0,STARLINK-3563,PAYLOAD,2023-01-28 19:41:52,15.08839816,0.0001094,53.2157,78.24,88.6936,271.4182,-4.7808e-05,-1.049e-05,0.0,0 STARLINK-3563,1 51858U 22022G   23028.82074153 -.00001049  00000-0 -47808-4 0  9997,2 51858  53.2157  78.2400 0001094  88.6936 271.4182 15.08839816 51546,6917.881,95.438,540.503,538.989,0.0
51858.0,STARLINK-3563,PAYLOAD,2023-01-29 13:11:06,15.08836077,0.0001178,53.2165,74.9688,95.1935,264.9192,0.00023444,3.445e-05,0.0,0 STARLINK-3563,1 51858U 22022G   23029.54937827  .00003445  00000-0  23444-3 0  9992,2 51858  53.2165  74.9688 0001178  95.1935 264.9192 15.08836077 51657,6917.892,95.438,540.572,538.942,0.0
51858.0,STARLINK-3563,PAYLOAD,2023-01-29 19:32:39,15.08836718,0.000117,53.2166,73.7776,86.471,273.6416,8.9687e-05,1.14e-05,0.0,0 STARLINK-3563,1 51858U 22022G   23029.81434106  .00001140  00000-0  89687-4 0  9996,2 51858  53.2166  73.7776 0001170  86.4710 273.6416 15.08836718 51691,6917.89,95.438,540.565,538.946,0.0
51858.0,STARLINK-3563,PAYLOAD,2023-01-30 03:29:35,15.08828943,0.0001198,53.2162,72.2928,89.601,270.5119,2.9063e-05,1.75e-06,0.0,0 STARLINK-3563,1 51858U 22022G   23030.14554895  .00000175  00000-0  29063-4 0  9991,2 51858  53.2162  72.2928 0001198  89.6010 270.5119 15.08828943 51741,6917.914,95.438,540.608,538.95,0.0
51858.0,STARLINK-3563,PAYLOAD,2023-01-30 11:26:30,15.0883756,0.0001252,53.2161,70.8056,89.9255,270.1881,7.5697e-05,9.17e-06,0.0,0 STARLINK-3563,1 51858U 22022G   23030.47674323  .00000917  00000-0  75697-4 0  9994,2 51858  53.2161  70.8056 0001252  89.9255 270.1881 15.08837560 51793,6917.888,95.438,540.619,538.887,0.0
51858.0,STARLINK-3563,PAYLOAD,2023-01-30 19:23:26,15.08836507,0.000125,53.2161,69.3188,90.9524,269.1611,4.9603e-05,5.02e-06,0.0,0 STARLINK-3563,1 51858U 22022G   23030.80794528  .00000502  00000-0  49603-4 0  9999,2 51858  53.2161  69.3188 0001250  90.9524 269.1611 15.08836507 51846,6917.891,95.438,540.621,538.891,0.0
51858.0,STARLINK-3563,PAYLOAD,2023-01-31 11:17:17,15.0884379,0.0001344,53.2164,66.3452,94.7226,265.3919,4.0337e-05,3.54e-06,0.0,0 STARLINK-3563,1 51858U 22022G   23031.47034241  .00000354  00000-0  40337-4 0  9992,2 51858  53.2164  66.3452 0001344  94.7226 265.3919 15.08843790 51947,6917.869,95.437,540.664,538.804,0.0
51858.0,STARLINK-3563,PAYLOAD,2023-01-31 19:14:13,15.08843299,0.0001301,53.2168,64.8584,91.8291,268.285,6.2632e-05,7.09e-06,0.0,0 STARLINK-3563,1 51858U 22022G   23031.80154173  .00000709  00000-0  62632-4 0  9992,2 51858  53.2168  64.8584 0001301  91.8291 268.2850 15.08843299 51998,6917.87,95.437,540.635,538.835,0.0
51858.0,STARLINK-3563,PAYLOAD,2023-02-01 09:32:41,15.08841706,0.000155,53.2172,62.1821,90.6405,269.4764,7.3692e-05,8.85e-06,0.0,0 STARLINK-3563,1 51858U 22022G   23032.39770388  .00000885  00000-0  73692-4 0  9992,2 51858  53.2172  62.1821 0001550  90.6405 269.4764 15.08841706 52087,6917.875,95.437,540.812,538.668,0.0
51858.0,STARLINK-3563,PAYLOAD,2023-02-01 19:05:00,15.08838623,0.0001484,53.2169,60.3986,86.6474,273.4688,4.836e-05,4.82e-06,0.0,0 STARLINK-3563,1 51858U 22022G   23032.79514639  .00000482  00000-0  48360-4 0  9998,2 51858  53.2169  60.3986 0001484  86.6474 273.4688 15.08838623 52143,6917.885,95.438,540.776,538.723,0.0
51858.0,STARLINK-3563,PAYLOAD,2023-02-02 10:58:52,15.08838744,0.0001489,53.2174,57.4251,85.6798,274.4365,5.7403e-05,6.26e-06,0.0,0 STARLINK-3563,1 51858U 22022G   23033.45754748  .00000626  00000-0  57403-4 0  9997,2 51858  53.2174  57.4251 0001489  85.6798 274.4365 15.08838744 52242,6917.884,95.438,540.779,538.719,0.0
51858.0,STARLINK-3563,PAYLOAD,2023-02-03 01:17:20,15.08836772,0.0001527,53.2172,54.7481,87.7558,272.3609,4.3372e-05,4.02e-06,0.0,0 STARLINK-3563,1 51858U 22022G   23034.05370884  .00000402  00000-0  43372-4 0  9991,2 51858  53.2172  54.7481 0001527  87.7558 272.3609 15.08836772 52332,6917.89,95.438,540.812,538.699,0.0
51858.0,STARLINK-3563,PAYLOAD,2023-02-03 07:38:52,15.08840791,0.0001559,53.2174,53.5591,88.291,271.826,4.0808e-05,3.62e-06,0.0,0 STARLINK-3563,1 51858U 22022G   23034.31866693  .00000362  00000-0  40808-4 0  9994,2 51858  53.2174  53.5591 0001559  88.2910 271.8260 15.08840791 52373,6917.878,95.438,540.821,538.664,0.0
51858.0,STARLINK-3563,PAYLOAD,2023-02-04 05:54:16,15.0882584,0.0001462,53.2177,49.395,105.8537,254.2616,0.00035426,5.352e-05,0.0,0 STARLINK-3563,1 51858U 22022G   23035.24602768  .00005352  00000-0  35426-3 0  9991,2 51858  53.2177  49.3950 0001462 105.8537 254.2616 15.08825840 52516,6917.924,95.438,540.8,538.777,0.0
51858.0,STARLINK-3563,PAYLOAD,2023-02-05 07:20:27,15.0883765,0.0001306,53.2178,44.6394,93.9071,266.207,1.1402e-05,-1.06e-06,0.0,0 STARLINK-3563,1 51858U 22022G   23036.30586931 -.00000106  00000-0  11402-4 0  9994,2 51858  53.2178  44.6394 0001306  93.9071 266.2070 15.08837650 52670,6917.888,95.438,540.656,538.849,0.0
